{"type": "FeatureCollection", "features": [ {"type": "Feature", "properties": {"norad_id": 34823, "name": "COSMOS 2251 DEB", "group": "cosmos-2251-debris", "lat": 11.407913048822031, "lon": 86.19831509630612, "alt_km": 807.4822005053393, "timestamp": "2025-12-22T23:36:21.111950+00:00", "meta": {"OBJECT_NAME": "COSMOS 2251 DEB", "OBJECT_ID": "1993-036ABN", "EPOCH": "2025-12-22T05:23:51.891360", "MEAN_MOTION": 14.54985842, "ECCENTRICITY": 0.01540618, "INCLINATION": 74.0418, "RA_OF_ASC_NODE": 84.324, "ARG_OF_PERICENTER": 166.7213, "MEAN_ANOMALY": 193.8079, "EPHEMERIS_TYPE": 0, "CLASSIFICATION_TYPE": "U", "NORAD_CAT_ID": 34823, "ELEMENT_SET_NO": 999, "REV_AT_EPOCH": 88519, "BSTAR": 0.00054126655, "MEAN_MOTION_DOT": 2.702e-05, "MEAN_MOTION_DDOT": 0}, "tle": {"line1": "1 34823U 93036ABN 25356.22490615  .00002702  00000+0  54127-3 0  9993", "line2": "2 34823  74.0418  84.3240 0154061 166.7213 193.8079 14.54985842885198"}}, "geometry": {"type": "Point", "coordinates": [86.19831509630612, 11.407913048822031]}}, {"type": "Feature", "properties": {"norad_id": 34845, "name": "COSMOS 2251 DEB", "group": "cosmos-2251-debris", "lat": 5.867152948234542, "lon": 130.9179092079159, "alt_km": 737.5785333276426, "timestamp": "2025-12-22T23:36:21.111960+00:00", "meta": {"OBJECT_NAME": "COSMOS 2251 DEB", "OBJECT_ID": "1993-036ABP", "EPOCH": "2025-12-19T17:31:51.884832", "MEAN_MOTION": 14.45872035, "ECCENTRICITY": 0.00225932, "INCLINATION": 74.0244, "RA_OF_ASC_NODE": 135.3011, "ARG_OF_PERICENTER": 295.1391, "MEAN_ANOMALY": 64.7423, "EPHEMERIS_TYPE": 0, "CLASSIFICATION_TYPE": "U", "NORAD_CAT_ID": 34845, "ELEMENT_SET_NO": 999, "REV_AT_EPOCH": 87567, "BSTAR": 0.00020260782, "MEAN_MOTION_DOT": 6.95e-06, "MEAN_MOTION_DDOT": 0}, "tle": {"line1": "1 34845U 93036ABP 25353.73046163  .00000695  00000+0  20261-3 0  9996", "line2": "2 34845  74.0244 135.3011 0022593 295.1391  64.7423 14.45872035875670"}}, "geometry": {"type": "Point", "coordinates": [130.9179092079159, 5.867152948234542]}}, {"type": "Feature", "properties": {"norad_id": 34846, "name": "COSMOS 2251 DEB", "group": "cosmos-2251-debris", "lat": -3.9202563021628656, "lon": -118.50496927729723, "alt_km": 725.3247547143446, "timestamp": "2025-12-22T23:36:21.111970+00:00", "meta": {"OBJECT_NAME": "COSMOS 2251 DEB", "OBJECT_ID": "1993-036ABQ", "EPOCH": "2025-12-21T11:07:37.718400", "MEAN_MOTION": 14.47259356, "ECCENTRICITY": 0.00262187, "INCLINATION": 74.0304, "RA_OF_ASC_NODE": 245.4609, "ARG_OF_PERICENTER": 310.7741, "MEAN_ANOMALY": 49.1142, "EPHEMERIS_TYPE": 0, "CLASSIFICATION_TYPE": "U", "NORAD_CAT_ID": 34846, "ELEMENT_SET_NO": 999, "REV_AT_EPOCH": 87530, "BSTAR": 0.0005506376, "MEAN_MOTION_DOT": 1.995e-05, "MEAN_MOTION_DDOT": 0}, "tle": {"line1": "1 34846U 93036ABQ 25355.46363100  .00001995  00000+0  55064-3 0  9995", "line2": "2 34846  74.0304 245.4609 0026218 310.7741  49.1142 14.47259356875307"}}, "geometry": {"type": "Point", "coordinates": [-118.50496927729723, -3.9202563021628656]}}, {"type": "Feature", "properties": {"norad_id": 34852, "name": "COSMOS 2251 DEB", "group": "cosmos-2251-debris", "lat": 42.728175343796615, "lon": -100.53156566320192, "alt_km": 758.5185684756761, "timestamp": "2025-12-22T23:36:21.111980+00:00", "meta": {"OBJECT_NAME": "COSMOS 2251 DEB", "OBJECT_ID": "1993-036ABW", "EPOCH": "2025-12-22T10:01:54.526080", "MEAN_MOTION": 14.37012127, "ECCENTRICITY": 0.00166159, "INCLINATION": 74.0324, "RA_OF_ASC_NODE": 245.1729, "ARG_OF_PERICENTER": 346.342, "MEAN_ANOMALY": 13.7281, "EPHEMERIS_TYPE": 0, "CLASSIFICATION_TYPE": "U", "NORAD_CAT_ID": 34852, "ELEMENT_SET_NO": 999, "REV_AT_EPOCH": 87673, "BSTAR": 0.00010888477, "MEAN_MOTION_DOT": 2.97e-06, "MEAN_MOTION_DDOT": 0}, "tle": {"line1": "1 34852U 93036ABW 25356.41799220  .00000297  00000+0  10888-3 0  9993", "line2": "2 34852  74.0324 245.1729 0016615 346.3420  13.7281 14.37012127876736"}}, "geometry": {"type": "Point", "coordinates": [-100.53156566320192, 42.728175343796615]}}, {"type": "Feature", "properties": {"norad_id": 34854, "name": "COSMOS 2251 DEB", "group": "cosmos-2251-debris", "lat": -28.34796713079064, "lon": 129.6141308258253, "alt_km": 638.8950821547451, "timestamp": "2025-12-22T23:36:21.111991+00:00", "meta": {"OBJECT_NAME": "COSMOS 2251 DEB", "OBJECT_ID": "1993-036ABY", "EPOCH": "2025-12-20T16:27:30.286080", "MEAN_MOTION": 14.76695376, "ECCENTRICITY": 0.00660109, "INCLINATION": 74.029, "RA_OF_ASC_NODE": 143.0056, "ARG_OF_PERICENTER": 253.0888, "MEAN_ANOMALY": 106.3042, "EPHEMERIS_TYPE": 0, "CLASSIFICATION_TYPE": "U", "NORAD_CAT_ID": 34854, "ELEMENT_SET_NO": 999, "REV_AT_EPOCH": 71999, "BSTAR": 0.00047616561, "MEAN_MOTION_DOT": 3.419e-05, "MEAN_MOTION_DDOT": 0}, "tle": {"line1": "1 34854U 93036ABY 25354.68576720  .00003419  00000+0  47617-3 0  9999", "line2": "2 34854  74.0290 143.0056 0066010 253.0888 106.3042 14.76695376719999"}}, "geometry": {"type": "Point", "coordinates": [129.6141308258253, -28.34796713079064]}}, {"type": "Feature", "properties": {"norad_id": 34856, "name": "COSMOS 2251 DEB", "group": "cosmos-2251-debris", "lat": 52.53475212137526, "lon": 85.77065610426367, "alt_km": 559.1925969106687, "timestamp": "2025-12-22T23:36:21.112001+00:00", "meta": {"OBJECT_NAME": "COSMOS 2251 DEB", "OBJECT_ID": "1993-036ACA", "EPOCH": "2025-12-22T04:21:55.176768", "MEAN_MOTION": 15.06507346, "ECCENTRICITY": 0.00315229, "INCLINATION": 73.9965, "RA_OF_ASC_NODE": 65.4259, "ARG_OF_PERICENTER": 201.8113, "MEAN_ANOMALY": 188.0228, "EPHEMERIS_TYPE": 0, "CLASSIFICATION_TYPE": "U", "NORAD_CAT_ID": 34856, "ELEMENT_SET_NO": 999, "REV_AT_EPOCH": 89254, "BSTAR": 0.001788913, "MEAN_MOTION_DOT": 0.00026797, "MEAN_MOTION_DDOT": 0}, "tle": {"line1": "1 34856U 93036ACA 25356.18188862  .00026797  00000+0  17889-2 0  9995", "line2": "2 34856  73.9965  65.4259 0031522 201.8113 188.0228 15.06507346892541"}}, "geometry": {"type": "Point", "coordinates": [85.77065610426367, 52.53475212137526]}}, {"type": "Feature", "properties": {"norad_id": 34857, "name": "COSMOS 2251 DEB", "group": "cosmos-2251-debris", "lat": 56.81197998439323, "lon": -118.70070606268972, "alt_km": 690.6619364755361, "timestamp": "2025-12-22T23:36:21.112026+00:00", "meta": {"OBJECT_NAME": "COSMOS 2251 DEB", "OBJECT_ID": "1993-036ACB", "EPOCH": "2025-12-22T10:28:47.029152", "MEAN_MOTION": 14.58982882, "ECCENTRICITY": 0.0065426, "INCLINATION": 74.0159, "RA_OF_ASC_NODE": 88.3327, "ARG_OF_PERICENTER": 210.9979, "MEAN_ANOMALY": 277.7256, "EPHEMERIS_TYPE": 0, "CLASSIFICATION_TYPE": "U", "NORAD_CAT_ID": 34857, "ELEMENT_SET_NO": 999, "REV_AT_EPOCH": 88042, "BSTAR": 0.0010661844, "MEAN_MOTION_DOT": 5.128e-05, "MEAN_MOTION_DDOT": 0}, "tle": {"line1": "1 34857U 93036ACB 25356.43665543  .00005128  00000+0  10662-2 0  9997", "line2": "2 34857  74.0159  88.3327 0065426 210.9979 277.7256 14.58982882880429"}}, "geometry": {"type": "Point", "coordinates": [-118.70070606268972, 56.81197998439323]}}, {"type": "Feature", "properties": {"norad_id": 34859, "name": "COSMOS 2251 DEB", "group": "cosmos-2251-debris", "lat": -2.7766429719800185, "lon": -42.470794704059074, "alt_km": 519.153778597888, "timestamp": "2025-12-22T23:36:21.112039+00:00", "meta": {"OBJECT_NAME": "COSMOS 2251 DEB", "OBJECT_ID": "1993-036ACD", "EPOCH": "2025-12-20T00:39:03.765024", "MEAN_MOTION": 15.15832734, "ECCENTRICITY": 0.00020914, "INCLINATION": 74.0278, "RA_OF_ASC_NODE": 324.4843, "ARG_OF_PERICENTER": 20.5726, "MEAN_ANOMALY": 48.6407, "EPHEMERIS_TYPE": 0, "CLASSIFICATION_TYPE": "U", "NORAD_CAT_ID": 34859, "ELEMENT_SET_NO": 999, "REV_AT_EPOCH": 88469, "BSTAR": 0.0027292363, "MEAN_MOTION_DOT": 0.00052535, "MEAN_MOTION_DDOT": 0}, "tle": {"line1": "1 34859U 93036ACD 25354.02712691  .00052535  00000+0  27292-2 0  9990", "line2": "2 34859  74.0278 324.4843 0002091  20.5726  48.6407 15.15832734884694"}}, "geometry": {"type": "Point", "coordinates": [-42.470794704059074, -2.7766429719800185]}}, {"type": "Feature", "properties": {"norad_id": 34861, "name": "COSMOS 2251 DEB", "group": "cosmos-2251-debris", "lat": 21.180698032124525, "lon": -156.45951509060697, "alt_km": 561.0298833012184, "timestamp": "2025-12-22T23:36:21.112051+00:00", "meta": {"OBJECT_NAME": "COSMOS 2251 DEB", "OBJECT_ID": "1993-036ACF", "EPOCH": "2025-12-21T20:31:48.902304", "MEAN_MOTION": 15.03073934, "ECCENTRICITY": 0.00081482, "INCLINATION": 74.0179, "RA_OF_ASC_NODE": 32.222, "ARG_OF_PERICENTER": 22.2074, "MEAN_ANOMALY": 153.5336, "EPHEMERIS_TYPE": 0, "CLASSIFICATION_TYPE": "U", "NORAD_CAT_ID": 34861, "ELEMENT_SET_NO": 999, "REV_AT_EPOCH": 88229, "BSTAR": 0.0019691215, "MEAN_MOTION_DOT": 0.00026634, "MEAN_MOTION_DDOT": 0}, "tle": {"line1": "1 34861U 93036ACF 25355.85542711  .00026634  00000+0  19691-2 0  9994", "line2": "2 34861  74.0179  32.2220 0008148  22.2074 153.5336 15.03073934882291"}}, "geometry": {"type": "Point", "coordinates": [-156.45951509060697, 21.180698032124525]}}, {"type": "Feature", "properties": {"norad_id": 34874, "name": "COSMOS 2251 DEB", "group": "cosmos-2251-debris", "lat": 1.216038824766308, "lon": -125.39514855349924, "alt_km": 780.1401995890537, "timestamp": "2025-12-22T23:36:21.112061+00:00", "meta": {"OBJECT_NAME": "COSMOS 2251 DEB", "OBJECT_ID": "1993-036ACM", "EPOCH": "2025-12-22T04:32:10.055328", "MEAN_MOTION": 14.36351572, "ECCENTRICITY": 0.00505582, "INCLINATION": 74.0394, "RA_OF_ASC_NODE": 56.4116, "ARG_OF_PERICENTER": 78.6258, "MEAN_ANOMALY": 312.4475, "EPHEMERIS_TYPE": 0, "CLASSIFICATION_TYPE": "U", "NORAD_CAT_ID": 34874, "ELEMENT_SET_NO": 999, "REV_AT_EPOCH": 87180, "BSTAR": 0.00076191071, "MEAN_MOTION_DOT": 2.237e-05, "MEAN_MOTION_DDOT": 0}, "tle": {"line1": "1 34874U 93036ACM 25356.18900527  .00002237  00000+0  76191-3 0  9990", "line2": "2 34874  74.0394  56.4116 0050558  78.6258 312.4475 14.36351572871804"}}, "geometry": {"type": "Point", "coordinates": [-125.39514855349924, 1.216038824766308]}}]}